RADUGA 1 [-]            
1 08513U 75123A   21341.88526477 -.00000161  00000+0  00000+0 0  9990
2 08513   7.0194 291.2197 0006563 213.4820 333.9734  1.00255083178249
RADUGA 2 [-]            
1 09416U 76092A   21341.98031271  .00000004  00000+0  00000+0 0  9998
2 09416   7.6775 293.1398 0027255 350.4271 211.7985  1.00256882112764
RADUGA 3 [-]            
1 10159U 77071A   21341.84151135 -.00000234  00000+0  00000+0 0  9995
2 10159   8.2891 295.6339 0008496 234.2289 298.6583  1.00350356160472
RADUGA 4 [-]            
1 10987U 78073A   21341.83994142 -.00000129  00000+0  00000+0 0  9992
2 10987   8.9003 298.9674 0009252 352.6082 168.5536  1.00193947103031
RADUGA 5 [-]            
1 11343U 79035A   21342.48383914 -.00000060  00000+0  00000+0 0  9993
2 11343   9.3493 301.6001 0005569 158.2997 222.7126  1.00294772112760
RADUGA 6 [-]            
1 11708U 80016A   21341.54688785  .00000104  00000+0  00000+0 0  9997
2 11708   9.6962 304.5397 0001915 200.3745 180.0780  1.00222406105590
RADUGA 7 [-]            
1 12003U 80081A   21341.52540142 -.00000221  00000+0  00000+0 0  9991
2 12003   9.8741 306.4116 0009931 264.1405 329.8458  1.00377512106846
RADUGA 8 [-]            
1 12351U 81027A   21341.81507705 -.00000098  00000+0  00000+0 0  9990
2 12351  10.1994 307.0248 0082291 221.9976 187.9768  1.00354206105946
RADUGA 9 [-]            
1 12618U 81069A   21341.54601566  .00000123  00000+0  00000+0 0  9990
2 12618  10.4029 309.8309 0002887 128.0567 242.0835  1.00214781111766
RADUGA 10 [-]           
1 12897U 81102A   21341.49218613 -.00000002  00000+0  00000+0 0  9995
2 12897  10.4850 310.7612 0004679 170.6300 197.1771  1.00277796100777
RADUGA 11 [-]           
1 13669U 82113A   21341.69047394 -.00000161  00000+0  00000+0 0  9990
2 13669  12.4484 323.9537 0037618 248.8720 116.0295  0.97709853105398
RADUGA 12 [-]           
1 13974U 83028A   21341.98258037 -.00000112  00000+0  00000+0 0  9991
2 13974  11.5622 320.2197 0002641  83.3432 103.7090  1.00249155152806
RADUGA 13 [-]           
1 14307U 83088A   21341.61299933 -.00000124  00000+0  00000+0 0  9991
2 14307  12.6812 325.5233 0016549  36.8045 317.5926  0.98174614102715
RADUGA 14 [-]           
1 14725U 84016A   21342.48322861 -.00000041  00000+0  00000+0 0  9998
2 14725  11.7397 323.8465 0003926 120.3686 234.9038  1.00293076101522
RADUGA 15 [-]           
1 15057U 84063A   21342.11160572  .00000119  00000+0  00000+0 0  9993
2 15057  11.8544 324.8346 0004386 148.3003  45.8910  1.00352548124522
RADUGA 16 [-]           
1 15946U 85070A   21341.65621194  .00000074  00000+0  00000+0 0  9999
2 15946  12.2738 329.4113 0001148 122.5740  85.4551  1.00179634105654
RADUGA 17 [-]           
1 16250U 85107A   21341.61378431  .00000112  00000+0  00000+0 0  9991
2 16250  12.3872 330.7573 0011950 176.6944 176.6599  1.00155634135119
RADUGA 18 [-]           
1 16497U 86007A   21341.78194124 -.00000279  00000+0  00000+0 0  9992
2 16497  13.1755 333.4042 0073736 158.6750  15.9691  0.98815302129535
RADUGA 19 [-]           
1 17046U 86082A   21341.00257590 -.00000007  00000+0  00000+0 0  9997
2 17046  13.5661 337.2655 0011952 138.7901  43.1453  0.98458402126638
RADUGA 20 [-]           
1 17611U 87028A   21341.95118177 -.00000100  00000+0  00000+0 0  9991
2 17611  15.5515 340.8046 0029224 130.1595 227.7696  0.95961191122441
RADUGA 21 [-]           
1 18631U 87100A   21341.58517668 -.00000028  00000+0  00000+0 0  9991
2 18631  13.6338 338.2709 0003196 102.1679  90.0754  1.00185353124516
RADUGA 22 [-]           
1 19596U 88095A   21341.68515921 -.00000378  00000+0  00000+0 0  9995
2 19596  13.5757 342.4545 0005282 122.8009 332.4194  1.00349751105086
RADUGA 23 [-]           
1 19928U 89030A   21342.11160572  .00000102  00000+0  00000+0 0  9995
2 19928  13.6963 344.2371 0020330 155.4601  24.6994  1.00202935118289
RADUGA-1 1 [-]          
1 20083U 89048A   21341.98615633 -.00000050  00000+0  00000+0 0  9998
2 20083  14.4230 347.2346 0021951 106.1482  72.7499  0.98706973114955
RADUGA 24 [-]           
1 20367U 89098A   21341.48583500 -.00000350  00000+0  00000+0 0  9993
2 20367  14.2506 346.5536 0001452  89.8533 280.0479  1.00279782116462
RADUGA 25 [-]           
1 20499U 90016A   21342.40087965 -.00000243  00000+0  00000+0 0  9999
2 20499  14.0122 347.1556 0003821 127.3147  76.6002  1.00274713116381
RADUGA 26 [-]           
1 21016U 90112A   21342.11715983  .00000002  00000+0  00000+0 0  9990
2 21016  14.2837 350.3988 0007503  75.6935 116.0366  1.00231522113670
RADUGA-1 2 [-]          
1 21038U 90116A   21341.55412694 -.00000235  00000+0  00000+0 0  9997
2 21038  14.3219 350.4778 0008656  86.4164 288.4344  1.00224631113348
RADUGA 27 [-]           
1 21132U 91014A   21341.62102340  .00000002  00000+0  00000+0 0  9993
2 21132  14.8355 350.1304 0003894  68.9802 305.3346  1.00169339112741
RADUGA 28 [-]           
1 21821U 91087A   21340.98304514 -.00000347  00000+0  00000+0 0  9996
2 21821  14.5634 353.7676 0006382 109.1125  69.9755  1.00338336109743
RADUGA 29 [-]           
1 22557U 93013A   21341.75464191  .00000051  00000+0  00000+0 0  9999
2 22557  14.7098 357.9330 0007113  97.6990 266.2234  1.00247119105112
RADUGA 30 [-]           
1 22836U 93062A   21341.55264424 -.00000162  00000+0  00000+0 0  9992
2 22836  14.7291 359.8735 0002889 346.2621   9.1510  1.00281622 29423
RADUGA-1 3 [-]          
1 22981U 94008A   21341.62311664 -.00000117  00000+0  00000+0 0  9991
2 22981  14.7940   1.0354 0003166  75.1574 298.6144  1.00330724101913
RADUGA 31 [-]           
1 23010U 94012A   21342.13485531  .00000044  00000+0  00000+0 0  9990
2 23010  14.7584   1.0200 0005718  73.7468 107.9955  1.00218759101771
RADUGA 32 [-]           
1 23448U 94087A   21341.58174427 -.00000151  00000+0  00000+0 0  9994
2 23448  14.7093   3.7129 0003735 204.4260 156.4792  1.00281237116315
RADUGA-1 4 [-]          
1 25642U 99010A   21341.62725748 -.00000048  00000+0  00000+0 0  9991
2 25642  15.1220  15.4017 0002779 277.3759  79.1650  1.00190847 83374
RADUGA-1 5 [-]          
1 26477U 00049A   21341.62547154 -.00000197  00000+0  00000+0 0  9990
2 26477  13.0132  19.8949 0005321  44.8808 322.4273  1.00208620 77850
RADUGA-1 6 [-]          
1 26936U 01045A   21341.69088529 -.00000060  00000+0  00000+0 0  9999
2 26936  13.0978  26.1103 0014677 159.3290 193.4980  0.97743630 72443
RADUGA-1 7 [-]          
1 28194U 04010A   21341.62686705 -.00000283  00000+0  00000+0 0  9992
2 28194  11.7484  33.0487 0001256 238.1256 123.2856  1.00372962 64846
RADUGA-1M 1 [-]         
1 32373U 07058A   21341.93834809  .00000045  00000+0  00000+0 0  9990
2 32373   6.4736  65.3531 0001797 323.5689 100.5500  0.99392373 51898
RADUGA-1 8 [-]          
1 34264U 09010A   21341.83444667  .00000115  00000+0  00000+0 0  9997
2 34264   8.8521  55.5608 0014247 353.5295  21.5855  0.99817180 46687
RADUGA-1M 2 [+]         
1 36358U 10002A   21342.06428035 -.00000183  00000+0  00000+0 0  9999
2 36358   0.0683 263.6006 0003364 348.2391 293.3545  1.00269393 43442
RADUGA-1M 3 [+]         
1 39375U 13062A   21339.36021667  .00000164  00000+0  00000+0 0  9997
2 39375   1.7488  91.8860 0002319  23.8020 123.3288  1.00273084 29530
